[{"OBJECT_NAME":"STARLINK-31114","OBJECT_ID":"2024-011B","EPOCH":"2026-03-09T06:23:51.437184","MEAN_MOTION":15.30192842,"ECCENTRICITY":0.0001084,"INCLINATION":53.1615,"RA_OF_ASC_NODE":13.6666,"ARG_OF_PERICENTER":87.3657,"MEAN_ANOMALY":272.7468,"EPHEMERIS_TYPE":0,"CLASSIFICATION_TYPE":"U","NORAD_CAT_ID":58766,"ELEMENT_SET_NO":999,"REV_AT_EPOCH":12023,"BSTAR":-9.084718e-6,"MEAN_MOTION_DOT":-6.28e-6,"MEAN_MOTION_DDOT":0},{"OBJECT_NAME":"OBJECT N","OBJECT_ID":"2024-205N","EPOCH":"2026-03-09T22:36:13.267872","MEAN_MOTION":15.33862123,"ECCENTRICITY":0.00094432,"INCLINATION":97.4211,"RA_OF_ASC_NODE":148.9295,"ARG_OF_PERICENTER":39.7652,"MEAN_ANOMALY":320.4281,"EPHEMERIS_TYPE":0,"CLASSIFICATION_TYPE":"U","NORAD_CAT_ID":61906,"ELEMENT_SET_NO":999,"REV_AT_EPOCH":7364,"BSTAR":0.00078005624,"MEAN_MOTION_DOT":0.00025559,"MEAN_MOTION_DDOT":0}]
